[{"OBJECT_NAME":"STARLINK-1446","OBJECT_ID":"2020-035G","EPOCH":"2026-03-09T22:34:36.621696","MEAN_MOTION":15.42911141,"ECCENTRICITY":3.749e-5,"INCLINATION":53.0259,"RA_OF_ASC_NODE":358.185,"ARG_OF_PERICENTER":267.9178,"MEAN_ANOMALY":92.1784,"EPHEMERIS_TYPE":0,"CLASSIFICATION_TYPE":"U","NORAD_CAT_ID":45663,"ELEMENT_SET_NO":999,"REV_AT_EPOCH":31971,"BSTAR":0.00054126708,"MEAN_MOTION_DOT":0.00023817,"MEAN_MOTION_DDOT":0},{"OBJECT_NAME":"STARLINK-2401","OBJECT_ID":"2021-018AH","EPOCH":"2026-03-09T22:10:26.161824","MEAN_MOTION":15.422267,"ECCENTRICITY":7.664e-5,"INCLINATION":53.0517,"RA_OF_ASC_NODE":251.5428,"ARG_OF_PERICENTER":114.0385,"MEAN_ANOMALY":246.0699,"EPHEMERIS_TYPE":0,"CLASSIFICATION_TYPE":"U","NORAD_CAT_ID":47818,"ELEMENT_SET_NO":999,"REV_AT_EPOCH":27661,"BSTAR":0.00076022564,"MEAN_MOTION_DOT":0.00032889,"MEAN_MOTION_DDOT":0}]
